[{"OBJECT_NAME":"ION SCV-002","OBJECT_ID":"2021-006CV","EPOCH":"2026-03-09T22:24:22.770432","MEAN_MOTION":15.41456912,"ECCENTRICITY":0.00138318,"INCLINATION":97.1152,"RA_OF_ASC_NODE":73.1802,"ARG_OF_PERICENTER":113.9229,"MEAN_ANOMALY":246.3469,"EPHEMERIS_TYPE":0,"CLASSIFICATION_TYPE":"U","NORAD_CAT_ID":47504,"ELEMENT_SET_NO":999,"REV_AT_EPOCH":28472,"BSTAR":0.00039122375,"MEAN_MOTION_DOT":0.00016364,"MEAN_MOTION_DDOT":0},{"OBJECT_NAME":"OBJECT H","OBJECT_ID":"2022-023H","EPOCH":"2026-03-09T22:57:41.313888","MEAN_MOTION":15.21889274,"ECCENTRICITY":0.00933376,"INCLINATION":63.6345,"RA_OF_ASC_NODE":356.5929,"ARG_OF_PERICENTER":305.1945,"MEAN_ANOMALY":54.0457,"EPHEMERIS_TYPE":0,"CLASSIFICATION_TYPE":"U","NORAD_CAT_ID":51953,"ELEMENT_SET_NO":999,"REV_AT_EPOCH":22114,"BSTAR":0.00043867493,"MEAN_MOTION_DOT":0.00011084,"MEAN_MOTION_DDOT":0}]
